{"type": "FeatureCollection", "features": [ {"type": "Feature", "properties": {"norad_id": 66536, "name": "STARLINK-35640", "group": "last-30-days", "lat": 35.26836065775873, "lon": 118.11002983602164, "alt_km": 410.46677870180247, "timestamp": "2025-12-10T04:57:28.366055+00:00", "meta": {"OBJECT_NAME": "STARLINK-35640", "OBJECT_ID": "2025-265W", "EPOCH": "2025-12-09T20:00:01.999008", "MEAN_MOTION": 15.50650131, "ECCENTRICITY": 0.0001898, "INCLINATION": 43, "RA_OF_ASC_NODE": 70.9234, "ARG_OF_PERICENTER": 280.4151, "MEAN_ANOMALY": 211.6233, "EPHEMERIS_TYPE": 0, "CLASSIFICATION_TYPE": "U", "NORAD_CAT_ID": 66536, "ELEMENT_SET_NO": 999, "REV_AT_EPOCH": 450, "BSTAR": -0.0026042, "MEAN_MOTION_DOT": -0.00150605, "MEAN_MOTION_DDOT": 0}, "tle": {"line1": "1 66536U 25265W   25343.83335647 -.00150605  00000+0 -26042-2 0  9996", "line2": "2 66536  43.0000  70.9234 0001898 280.4151 211.6233 15.50650131  4501"}}, "geometry": {"type": "Point", "coordinates": [118.11002983602164, 35.26836065775873]}}, {"type": "Feature", "properties": {"norad_id": 66537, "name": "STARLINK-35582", "group": "last-30-days", "lat": 36.10196750168476, "lon": 120.23373271338106, "alt_km": 410.4144241305157, "timestamp": "2025-12-10T04:57:28.366066+00:00", "meta": {"OBJECT_NAME": "STARLINK-35582", "OBJECT_ID": "2025-265X", "EPOCH": "2025-12-09T20:00:01.999008", "MEAN_MOTION": 15.5066114, "ECCENTRICITY": 0.0001801, "INCLINATION": 43.0003, "RA_OF_ASC_NODE": 70.9188, "ARG_OF_PERICENTER": 274.2553, "MEAN_ANOMALY": 219.6977, "EPHEMERIS_TYPE": 0, "CLASSIFICATION_TYPE": "U", "NORAD_CAT_ID": 66537, "ELEMENT_SET_NO": 999, "REV_AT_EPOCH": 452, "BSTAR": -0.0029308, "MEAN_MOTION_DOT": -0.0016912, "MEAN_MOTION_DDOT": 0}, "tle": {"line1": "1 66537U 25265X   25343.83335647 -.00169120  00000+0 -29308-2 0  9997", "line2": "2 66537  43.0003  70.9188 0001801 274.2553 219.6977 15.50661140  4521"}}, "geometry": {"type": "Point", "coordinates": [120.23373271338106, 36.10196750168476]}}, {"type": "Feature", "properties": {"norad_id": 66538, "name": "STARLINK-35577", "group": "last-30-days", "lat": 36.89741075262687, "lon": 122.40340799398136, "alt_km": 410.29518168950017, "timestamp": "2025-12-10T04:57:28.366075+00:00", "meta": {"OBJECT_NAME": "STARLINK-35577", "OBJECT_ID": "2025-265Y", "EPOCH": "2025-12-09T20:00:01.999008", "MEAN_MOTION": 15.50653728, "ECCENTRICITY": 0.0001862, "INCLINATION": 43.0001, "RA_OF_ASC_NODE": 70.9135, "ARG_OF_PERICENTER": 277.9215, "MEAN_ANOMALY": 217.9538, "EPHEMERIS_TYPE": 0, "CLASSIFICATION_TYPE": "U", "NORAD_CAT_ID": 66538, "ELEMENT_SET_NO": 999, "REV_AT_EPOCH": 452, "BSTAR": -0.0027595, "MEAN_MOTION_DOT": -0.0015941, "MEAN_MOTION_DDOT": 0}, "tle": {"line1": "1 66538U 25265Y   25343.83335647 -.00159410  00000+0 -27595-2 0  9995", "line2": "2 66538  43.0001  70.9135 0001862 277.9215 217.9538 15.50653728  4521"}}, "geometry": {"type": "Point", "coordinates": [122.40340799398136, 36.89741075262687]}}, {"type": "Feature", "properties": {"norad_id": 66539, "name": "STARLINK-35697", "group": "last-30-days", "lat": 37.65050480013256, "lon": 124.61148444996513, "alt_km": 410.18577617849405, "timestamp": "2025-12-10T04:57:28.366087+00:00", "meta": {"OBJECT_NAME": "STARLINK-35697", "OBJECT_ID": "2025-265Z", "EPOCH": "2025-12-09T20:00:01.999008", "MEAN_MOTION": 15.5064592, "ECCENTRICITY": 0.000189, "INCLINATION": 43.0002, "RA_OF_ASC_NODE": 70.9086, "ARG_OF_PERICENTER": 279.0197, "MEAN_ANOMALY": 218.7704, "EPHEMERIS_TYPE": 0, "CLASSIFICATION_TYPE": "U", "NORAD_CAT_ID": 66539, "ELEMENT_SET_NO": 999, "REV_AT_EPOCH": 452, "BSTAR": -0.0024703, "MEAN_MOTION_DOT": -0.00142994, "MEAN_MOTION_DDOT": 0}, "tle": {"line1": "1 66539U 25265Z   25343.83335647 -.00142994  00000+0 -24703-2 0  9993", "line2": "2 66539  43.0002  70.9086 0001890 279.0197 218.7704 15.50645920  4520"}}, "geometry": {"type": "Point", "coordinates": [124.61148444996513, 37.65050480013256]}}, {"type": "Feature", "properties": {"norad_id": 66540, "name": "STARLINK-35818", "group": "last-30-days", "lat": 38.36299439128586, "lon": 126.8690856879516, "alt_km": 410.0466585401182, "timestamp": "2025-12-10T04:57:28.366098+00:00", "meta": {"OBJECT_NAME": "STARLINK-35818", "OBJECT_ID": "2025-265AA", "EPOCH": "2025-12-09T20:00:01.999008", "MEAN_MOTION": 15.50644734, "ECCENTRICITY": 0.0001859, "INCLINATION": 43.0002, "RA_OF_ASC_NODE": 70.9037, "ARG_OF_PERICENTER": 281.6087, "MEAN_ANOMALY": 218.0994, "EPHEMERIS_TYPE": 0, "CLASSIFICATION_TYPE": "U", "NORAD_CAT_ID": 66540, "ELEMENT_SET_NO": 999, "REV_AT_EPOCH": 452, "BSTAR": -0.0024401, "MEAN_MOTION_DOT": -0.00141273, "MEAN_MOTION_DDOT": 0}, "tle": {"line1": "1 66540U 25265AA  25343.83335647 -.00141273  00000+0 -24401-2 0  9999", "line2": "2 66540  43.0002  70.9037 0001859 281.6087 218.0994 15.50644734  4526"}}, "geometry": {"type": "Point", "coordinates": [126.8690856879516, 38.36299439128586]}}, {"type": "Feature", "properties": {"norad_id": 66541, "name": "STARLINK-35796", "group": "last-30-days", "lat": 39.031176606563285, "lon": 129.16969487270578, "alt_km": 410.0020334273204, "timestamp": "2025-12-10T04:57:28.366108+00:00", "meta": {"OBJECT_NAME": "STARLINK-35796", "OBJECT_ID": "2025-265AB", "EPOCH": "2025-12-09T20:00:01.999008", "MEAN_MOTION": 15.50647787, "ECCENTRICITY": 0.0001882, "INCLINATION": 43.0004, "RA_OF_ASC_NODE": 70.8989, "ARG_OF_PERICENTER": 280.2054, "MEAN_ANOMALY": 221.4188, "EPHEMERIS_TYPE": 0, "CLASSIFICATION_TYPE": "U", "NORAD_CAT_ID": 66541, "ELEMENT_SET_NO": 999, "REV_AT_EPOCH": 452, "BSTAR": -0.0025271, "MEAN_MOTION_DOT": -0.00146224, "MEAN_MOTION_DDOT": 0}, "tle": {"line1": "1 66541U 25265AB  25343.83335647 -.00146224  00000+0 -25271-2 0  9997", "line2": "2 66541  43.0004  70.8989 0001882 280.2054 221.4188 15.50647787  4523"}}, "geometry": {"type": "Point", "coordinates": [129.16969487270578, 39.031176606563285]}}, {"type": "Feature", "properties": {"norad_id": 66542, "name": "STARLINK-35833", "group": "last-30-days", "lat": 39.65242112351331, "lon": 131.51098890081477, "alt_km": 409.92878741886034, "timestamp": "2025-12-10T04:57:28.366118+00:00", "meta": {"OBJECT_NAME": "STARLINK-35833", "OBJECT_ID": "2025-265AC", "EPOCH": "2025-12-09T20:00:01.999008", "MEAN_MOTION": 15.50645611, "ECCENTRICITY": 0.0001893, "INCLINATION": 43.0004, "RA_OF_ASC_NODE": 70.8944, "ARG_OF_PERICENTER": 280.1056, "MEAN_ANOMALY": 223.434, "EPHEMERIS_TYPE": 0, "CLASSIFICATION_TYPE": "U", "NORAD_CAT_ID": 66542, "ELEMENT_SET_NO": 999, "REV_AT_EPOCH": 452, "BSTAR": -0.0024215, "MEAN_MOTION_DOT": -0.00140227, "MEAN_MOTION_DDOT": 0}, "tle": {"line1": "1 66542U 25265AC  25343.83335647 -.00140227  00000+0 -24215-2 0  9992", "line2": "2 66542  43.0004  70.8944 0001893 280.1056 223.4340 15.50645611  4524"}}, "geometry": {"type": "Point", "coordinates": [131.51098890081477, 39.65242112351331]}}, {"type": "Feature", "properties": {"norad_id": 66543, "name": "STARLINK-35315", "group": "last-30-days", "lat": 40.226812881747975, "lon": 133.89862225813178, "alt_km": 409.9526222859113, "timestamp": "2025-12-10T04:57:28.366130+00:00", "meta": {"OBJECT_NAME": "STARLINK-35315", "OBJECT_ID": "2025-265AD", "EPOCH": "2025-12-09T20:00:01.999008", "MEAN_MOTION": 15.50657653, "ECCENTRICITY": 0.0001935, "INCLINATION": 43.0002, "RA_OF_ASC_NODE": 70.8894, "ARG_OF_PERICENTER": 276.1627, "MEAN_ANOMALY": 229.2941, "EPHEMERIS_TYPE": 0, "CLASSIFICATION_TYPE": "U", "NORAD_CAT_ID": 66543, "ELEMENT_SET_NO": 999, "REV_AT_EPOCH": 441, "BSTAR": -0.0028299, "MEAN_MOTION_DOT": -0.00163411, "MEAN_MOTION_DDOT": 0}, "tle": {"line1": "1 66543U 25265AD  25343.83335647 -.00163411  00000+0 -28299-2 0  9999", "line2": "2 66543  43.0002  70.8894 0001935 276.1627 229.2941 15.50657653  4411"}}, "geometry": {"type": "Point", "coordinates": [133.89862225813178, 40.226812881747975]}}, {"type": "Feature", "properties": {"norad_id": 66544, "name": "STARLINK-35728", "group": "last-30-days", "lat": 40.74921592413145, "lon": 136.31653285763917, "alt_km": 409.82840989014767, "timestamp": "2025-12-10T04:57:28.366140+00:00", "meta": {"OBJECT_NAME": "STARLINK-35728", "OBJECT_ID": "2025-265AE", "EPOCH": "2025-12-09T20:00:01.999008", "MEAN_MOTION": 15.50655245, "ECCENTRICITY": 0.0001842, "INCLINATION": 42.9999, "RA_OF_ASC_NODE": 70.8844, "ARG_OF_PERICENTER": 276.9693, "MEAN_ANOMALY": 230.4032, "EPHEMERIS_TYPE": 0, "CLASSIFICATION_TYPE": "U", "NORAD_CAT_ID": 66544, "ELEMENT_SET_NO": 999, "REV_AT_EPOCH": 452, "BSTAR": -0.0027938, "MEAN_MOTION_DOT": -0.00161354, "MEAN_MOTION_DDOT": 0}, "tle": {"line1": "1 66544U 25265AE  25343.83335647 -.00161354  00000+0 -27938-2 0  9993", "line2": "2 66544  42.9999  70.8844 0001842 276.9693 230.4032 15.50655245  4520"}}, "geometry": {"type": "Point", "coordinates": [136.31653285763917, 40.74921592413145]}}, {"type": "Feature", "properties": {"norad_id": 66545, "name": "SHIJIAN-30A", "group": "last-30-days", "lat": 44.69790787417292, "lon": 113.53833174248825, "alt_km": 518.7411361861896, "timestamp": "2025-12-10T04:57:28.366153+00:00", "meta": {"OBJECT_NAME": "SHIJIAN-30A", "OBJECT_ID": "2025-266A", "EPOCH": "2025-12-09T17:22:07.936608", "MEAN_MOTION": 15.15552376, "ECCENTRICITY": 0.0012776, "INCLINATION": 51.7991, "RA_OF_ASC_NODE": 346.9918, "ARG_OF_PERICENTER": 345.45, "MEAN_ANOMALY": 14.6107, "EPHEMERIS_TYPE": 0, "CLASSIFICATION_TYPE": "U", "NORAD_CAT_ID": 66545, "ELEMENT_SET_NO": 999, "REV_AT_EPOCH": 312, "BSTAR": 0.00082109, "MEAN_MOTION_DOT": 0.00015522, "MEAN_MOTION_DDOT": 0}, "tle": {"line1": "1 66545U 25266A   25343.72370297  .00015522  00000+0  82109-3 0  9998", "line2": "2 66545  51.7991 346.9918 0012776 345.4500  14.6107 15.15552376  3129"}}, "geometry": {"type": "Point", "coordinates": [113.53833174248825, 44.69790787417292]}}]}